[{"OBJECT_NAME":"LYNK TOWER 4","OBJECT_ID":"2023-001AB","EPOCH":"2026-03-09T16:15:30.644928","MEAN_MOTION":15.31819885,"ECCENTRICITY":0.00103213,"INCLINATION":97.3324,"RA_OF_ASC_NODE":128.594,"ARG_OF_PERICENTER":112.3386,"MEAN_ANOMALY":247.895,"EPHEMERIS_TYPE":0,"CLASSIFICATION_TYPE":"U","NORAD_CAT_ID":55034,"ELEMENT_SET_NO":999,"REV_AT_EPOCH":17658,"BSTAR":0.00030013829,"MEAN_MOTION_DOT":9.16e-5,"MEAN_MOTION_DDOT":0},{"OBJECT_NAME":"STARLINK-31032","OBJECT_ID":"2023-192E","EPOCH":"2026-03-09T06:42:10.274112","MEAN_MOTION":15.30202083,"ECCENTRICITY":0.00014918,"INCLINATION":53.1623,"RA_OF_ASC_NODE":64.5659,"ARG_OF_PERICENTER":87.9905,"MEAN_ANOMALY":272.1267,"EPHEMERIS_TYPE":0,"CLASSIFICATION_TYPE":"U","NORAD_CAT_ID":58535,"ELEMENT_SET_NO":999,"REV_AT_EPOCH":12592,"BSTAR":9.3541556e-5,"MEAN_MOTION_DOT":2.412e-5,"MEAN_MOTION_DDOT":0}]
